{"type": "FeatureCollection", "features": [ {"type": "Feature", "properties": {"norad_id": 33905, "name": "COSMOS 2251 DEB", "group": "cosmos-2251-debris", "lat": -18.25770860316177, "lon": 115.92029058585463, "alt_km": 739.7195358731906, "timestamp": "2025-12-26T21:25:53.402371+00:00", "meta": {"OBJECT_NAME": "COSMOS 2251 DEB", "OBJECT_ID": "1993-036DJ", "EPOCH": "2025-12-25T21:21:48.164256", "MEAN_MOTION": 14.35428413, "ECCENTRICITY": 0.0058089, "INCLINATION": 73.8868, "RA_OF_ASC_NODE": 292.3034, "ARG_OF_PERICENTER": 178.9773, "MEAN_ANOMALY": 239.5395, "EPHEMERIS_TYPE": 0, "CLASSIFICATION_TYPE": "U", "NORAD_CAT_ID": 33905, "ELEMENT_SET_NO": 999, "REV_AT_EPOCH": 87876, "BSTAR": 0.00053799, "MEAN_MOTION_DOT": 1.548e-05, "MEAN_MOTION_DDOT": 0}, "tle": {"line1": "1 33905U 93036DJ  25359.89014079  .00001548  00000+0  53799-3 0  9996", "line2": "2 33905  73.8868 292.3034 0058089 178.9773 239.5395 14.35428413878764"}}, "geometry": {"type": "Point", "coordinates": [115.92029058585463, -18.25770860316177]}}, {"type": "Feature", "properties": {"norad_id": 33906, "name": "COSMOS 2251 DEB", "group": "cosmos-2251-debris", "lat": 62.268315027053646, "lon": 81.5713715346629, "alt_km": 718.2336439343644, "timestamp": "2025-12-26T21:25:53.402382+00:00", "meta": {"OBJECT_NAME": "COSMOS 2251 DEB", "OBJECT_ID": "1993-036DK", "EPOCH": "2025-12-25T22:07:37.012224", "MEAN_MOTION": 14.57306917, "ECCENTRICITY": 0.0036915, "INCLINATION": 74.0302, "RA_OF_ASC_NODE": 296.4211, "ARG_OF_PERICENTER": 324.0836, "MEAN_ANOMALY": 96.415, "EPHEMERIS_TYPE": 0, "CLASSIFICATION_TYPE": "U", "NORAD_CAT_ID": 33906, "ELEMENT_SET_NO": 999, "REV_AT_EPOCH": 88200, "BSTAR": 0.0018801, "MEAN_MOTION_DOT": 8.57e-05, "MEAN_MOTION_DDOT": 0}, "tle": {"line1": "1 33906U 93036DK  25359.92195616  .00008570  00000+0  18801-2 0  9994", "line2": "2 33906  74.0302 296.4211 0036915 324.0836  96.4150 14.57306917882000"}}, "geometry": {"type": "Point", "coordinates": [81.5713715346629, 62.268315027053646]}}, {"type": "Feature", "properties": {"norad_id": 33907, "name": "COSMOS 2251 DEB", "group": "cosmos-2251-debris", "lat": 9.004364674664538, "lon": -174.6502013841806, "alt_km": 819.3389139594046, "timestamp": "2025-12-26T21:25:53.402392+00:00", "meta": {"OBJECT_NAME": "COSMOS 2251 DEB", "OBJECT_ID": "1993-036DL", "EPOCH": "2025-12-26T11:07:59.162016", "MEAN_MOTION": 14.30635285, "ECCENTRICITY": 0.01119668, "INCLINATION": 74.0706, "RA_OF_ASC_NODE": 8.7228, "ARG_OF_PERICENTER": 60.0979, "MEAN_ANOMALY": 60.119, "EPHEMERIS_TYPE": 0, "CLASSIFICATION_TYPE": "U", "NORAD_CAT_ID": 33907, "ELEMENT_SET_NO": 999, "REV_AT_EPOCH": 86776, "BSTAR": 0.0020247111, "MEAN_MOTION_DOT": 5.643e-05, "MEAN_MOTION_DDOT": 0}, "tle": {"line1": "1 33907U 93036DL  25360.46387919  .00005643  00000+0  20247-2 0  9990", "line2": "2 33907  74.0706   8.7228 0111966  60.0979  60.1190 14.30635285867768"}}, "geometry": {"type": "Point", "coordinates": [-174.6502013841806, 9.004364674664538]}}, {"type": "Feature", "properties": {"norad_id": 33908, "name": "COSMOS 2251 DEB", "group": "cosmos-2251-debris", "lat": 72.21722280148697, "lon": -64.06323247408164, "alt_km": 896.5809346413644, "timestamp": "2025-12-26T21:25:53.402402+00:00", "meta": {"OBJECT_NAME": "COSMOS 2251 DEB", "OBJECT_ID": "1993-036DM", "EPOCH": "2025-12-26T12:25:28.029792", "MEAN_MOTION": 14.07458708, "ECCENTRICITY": 0.02221938, "INCLINATION": 73.8373, "RA_OF_ASC_NODE": 181.3169, "ARG_OF_PERICENTER": 202.3085, "MEAN_ANOMALY": 156.8274, "EPHEMERIS_TYPE": 0, "CLASSIFICATION_TYPE": "U", "NORAD_CAT_ID": 33908, "ELEMENT_SET_NO": 999, "REV_AT_EPOCH": 85667, "BSTAR": 0.0027110454, "MEAN_MOTION_DOT": 5.696e-05, "MEAN_MOTION_DDOT": 0}, "tle": {"line1": "1 33908U 93036DM  25360.51768553  .00005696  00000+0  27110-2 0  9998", "line2": "2 33908  73.8373 181.3169 0222193 202.3085 156.8274 14.07458708856673"}}, "geometry": {"type": "Point", "coordinates": [-64.06323247408164, 72.21722280148697]}}, {"type": "Feature", "properties": {"norad_id": 33911, "name": "COSMOS 2251 DEB", "group": "cosmos-2251-debris", "lat": 65.51942881071825, "lon": 173.07520186893106, "alt_km": 627.8875436502631, "timestamp": "2025-12-26T21:25:53.402413+00:00", "meta": {"OBJECT_NAME": "COSMOS 2251 DEB", "OBJECT_ID": "1993-036DQ", "EPOCH": "2025-12-26T13:32:35.142432", "MEAN_MOTION": 14.75214363, "ECCENTRICITY": 0.00140564, "INCLINATION": 74.0903, "RA_OF_ASC_NODE": 134.9269, "ARG_OF_PERICENTER": 65.426, "MEAN_ANOMALY": 60.9068, "EPHEMERIS_TYPE": 0, "CLASSIFICATION_TYPE": "U", "NORAD_CAT_ID": 33911, "ELEMENT_SET_NO": 999, "REV_AT_EPOCH": 88848, "BSTAR": 0.0023506185, "MEAN_MOTION_DOT": 0.00015924, "MEAN_MOTION_DDOT": 0}, "tle": {"line1": "1 33911U 93036DQ  25360.56429563  .00015924  00000+0  23506-2 0  9992", "line2": "2 33911  74.0903 134.9269 0014056  65.4260  60.9068 14.75214363888486"}}, "geometry": {"type": "Point", "coordinates": [173.07520186893106, 65.51942881071825]}}, {"type": "Feature", "properties": {"norad_id": 33912, "name": "COSMOS 2251 DEB", "group": "cosmos-2251-debris", "lat": -40.59582483894285, "lon": -2.73468382506079, "alt_km": 717.8602444994167, "timestamp": "2025-12-26T21:25:53.402424+00:00", "meta": {"OBJECT_NAME": "COSMOS 2251 DEB", "OBJECT_ID": "1993-036DR", "EPOCH": "2025-12-26T12:26:23.449344", "MEAN_MOTION": 14.51975431, "ECCENTRICITY": 0.00112584, "INCLINATION": 74.0335, "RA_OF_ASC_NODE": 163.7682, "ARG_OF_PERICENTER": 243.0347, "MEAN_ANOMALY": 181.9648, "EPHEMERIS_TYPE": 0, "CLASSIFICATION_TYPE": "U", "NORAD_CAT_ID": 33912, "ELEMENT_SET_NO": 999, "REV_AT_EPOCH": 88633, "BSTAR": 0.00085580235, "MEAN_MOTION_DOT": 3.432e-05, "MEAN_MOTION_DDOT": 0}, "tle": {"line1": "1 33912U 93036DR  25360.51832696  .00003432  00000+0  85580-3 0  9995", "line2": "2 33912  74.0335 163.7682 0011258 243.0347 181.9648 14.51975431886330"}}, "geometry": {"type": "Point", "coordinates": [-2.73468382506079, -40.59582483894285]}}, {"type": "Feature", "properties": {"norad_id": 33913, "name": "COSMOS 2251 DEB", "group": "cosmos-2251-debris", "lat": 43.97184617811408, "lon": -38.906974010451684, "alt_km": 745.0583157012843, "timestamp": "2025-12-26T21:25:53.402433+00:00", "meta": {"OBJECT_NAME": "COSMOS 2251 DEB", "OBJECT_ID": "1993-036DS", "EPOCH": "2025-12-26T11:00:18.483264", "MEAN_MOTION": 14.48542567, "ECCENTRICITY": 0.00481656, "INCLINATION": 74.0331, "RA_OF_ASC_NODE": 157.941, "ARG_OF_PERICENTER": 257.9623, "MEAN_ANOMALY": 131.6534, "EPHEMERIS_TYPE": 0, "CLASSIFICATION_TYPE": "U", "NORAD_CAT_ID": 33913, "ELEMENT_SET_NO": 999, "REV_AT_EPOCH": 88656, "BSTAR": 0.00063925997, "MEAN_MOTION_DOT": 2.409e-05, "MEAN_MOTION_DDOT": 0}, "tle": {"line1": "1 33913U 93036DS  25360.45854726  .00002409  00000+0  63926-3 0  9990", "line2": "2 33913  74.0331 157.9410 0048165 257.9623 131.6534 14.48542567886566"}}, "geometry": {"type": "Point", "coordinates": [-38.906974010451684, 43.97184617811408]}}, {"type": "Feature", "properties": {"norad_id": 33914, "name": "COSMOS 2251 DEB", "group": "cosmos-2251-debris", "lat": 11.257071632423248, "lon": 168.51602366324312, "alt_km": 936.445118628676, "timestamp": "2025-12-26T21:25:53.402444+00:00", "meta": {"OBJECT_NAME": "COSMOS 2251 DEB", "OBJECT_ID": "1993-036DT", "EPOCH": "2025-12-26T03:29:35.982240", "MEAN_MOTION": 13.71992842, "ECCENTRICITY": 0.03007747, "INCLINATION": 74.0912, "RA_OF_ASC_NODE": 353.0015, "ARG_OF_PERICENTER": 92.7934, "MEAN_ANOMALY": 341.7967, "EPHEMERIS_TYPE": 0, "CLASSIFICATION_TYPE": "U", "NORAD_CAT_ID": 33914, "ELEMENT_SET_NO": 999, "REV_AT_EPOCH": 84265, "BSTAR": 0.00027030331, "MEAN_MOTION_DOT": 3.19e-06, "MEAN_MOTION_DDOT": 0}, "tle": {"line1": "1 33914U 93036DT  25360.14555535  .00000319  00000+0  27030-3 0  9997", "line2": "2 33914  74.0912 353.0015 0300774  92.7934 341.7967 13.71992842842655"}}, "geometry": {"type": "Point", "coordinates": [168.51602366324312, 11.257071632423248]}}, {"type": "Feature", "properties": {"norad_id": 33915, "name": "COSMOS 2251 DEB", "group": "cosmos-2251-debris", "lat": -70.94469671173312, "lon": -115.90201778106349, "alt_km": 852.5153710787627, "timestamp": "2025-12-26T21:25:53.402455+00:00", "meta": {"OBJECT_NAME": "COSMOS 2251 DEB", "OBJECT_ID": "1993-036DU", "EPOCH": "2025-12-26T10:46:32.151936", "MEAN_MOTION": 14.35112163, "ECCENTRICITY": 0.01039793, "INCLINATION": 74.0429, "RA_OF_ASC_NODE": 8.9813, "ARG_OF_PERICENTER": 97.828, "MEAN_ANOMALY": 28.3094, "EPHEMERIS_TYPE": 0, "CLASSIFICATION_TYPE": "U", "NORAD_CAT_ID": 33915, "ELEMENT_SET_NO": 999, "REV_AT_EPOCH": 87954, "BSTAR": 0.00036000173, "MEAN_MOTION_DOT": 1.067e-05, "MEAN_MOTION_DDOT": 0}, "tle": {"line1": "1 33915U 93036DU  25360.44898324  .00001067  00000+0  36000-3 0  9995", "line2": "2 33915  74.0429   8.9813 0103979  97.8280  28.3094 14.35112163879547"}}, "geometry": {"type": "Point", "coordinates": [-115.90201778106349, -70.94469671173312]}}, {"type": "Feature", "properties": {"norad_id": 33916, "name": "COSMOS 2251 DEB", "group": "cosmos-2251-debris", "lat": -72.58895392041991, "lon": -96.90851128968963, "alt_km": 948.1673144134093, "timestamp": "2025-12-26T21:25:53.402465+00:00", "meta": {"OBJECT_NAME": "COSMOS 2251 DEB", "OBJECT_ID": "1993-036DV", "EPOCH": "2025-12-26T11:59:17.834208", "MEAN_MOTION": 13.68627159, "ECCENTRICITY": 0.03246999, "INCLINATION": 74.0518, "RA_OF_ASC_NODE": 17.9793, "ARG_OF_PERICENTER": 187.1665, "MEAN_ANOMALY": 294.2626, "EPHEMERIS_TYPE": 0, "CLASSIFICATION_TYPE": "U", "NORAD_CAT_ID": 33916, "ELEMENT_SET_NO": 999, "REV_AT_EPOCH": 84079, "BSTAR": 0.00030165761, "MEAN_MOTION_DOT": 3.52e-06, "MEAN_MOTION_DDOT": 0}, "tle": {"line1": "1 33916U 93036DV  25360.49951197  .00000352  00000+0  30166-3 0  9992", "line2": "2 33916  74.0518  17.9793 0324699 187.1665 294.2626 13.68627159840799"}}, "geometry": {"type": "Point", "coordinates": [-96.90851128968963, -72.58895392041991]}}]}